1 27424U 02022A   11262.57581922 +.00000741 +00000-0 +17446-3 0 00703
2 27424 098.2025 201.8559 0001431 087.2603 272.8748 14.57114398498813